COMMENT,ORIGINATOR,NORAD_CAT_ID,OBJECT_NAME,OBJECT_TYPE,CLASSIFICATION_TYPE,INTLDES,EPOCH,EPOCH_MICROSECONDS,MEAN_MOTION,ECCENTRICITY,INCLINATION,RA_OF_ASC_NODE,ARG_OF_PERICENTER,MEAN_ANOMALY,EPHEMERIS_TYPE,ELEMENT_SET_NO,REV_AT_EPOCH,BSTAR,MEAN_MOTION_DOT,MEAN_MOTION_DDOT,FILE,TLE_LINE0,TLE_LINE1,TLE_LINE2,OBJECT_ID,OBJECT_NUMBER,SEMIMAJOR_AXIS,PERIOD,APOGEE,PERIGEE,DECAYED
"GENERATED VIA SPACETRACK.ORG API","18 SPCS","48883","SPACEBEE-100","PAYLOAD","U","21059E","2023-03-11 08:18:16","467552","15.24808367","0.0008198","97.5811","205.3219","253.414","106.6197","0","999","9444","0.002059","0.00051364","0","3857499","0 SPACEBEE-100","1 48883U 21059E   23070.34602393  .00051364  00000-0  20590-2 0  9997","2 48883  97.5811 205.3219 0008198 253.4140 106.6197 15.24808367 94446","2021-059E","48883","6869.498","94.438","496.995","485.731","0"
"GENERATED VIA SPACETRACK.ORG API","18 SPCS","48883","SPACEBEE-100","PAYLOAD","U","21059E","2023-03-11 08:18:16","467552","15.24808367","0.0008198","97.5811","205.3219","253.414","106.6197","0","999","9444","0.002059","0.00051364","0","3857581","0 SPACEBEE-100","1 48883U 21059E   23070.34602393  .00051364  00000-0  20590-2 0  9997","2 48883  97.5811 205.3219 0008198 253.4140 106.6197 15.24808367 94446","2021-059E","48883","6869.498","94.438","496.995","485.731","0"
"GENERATED VIA SPACETRACK.ORG API","18 SPCS","48883","SPACEBEE-100","PAYLOAD","U","21059E","2023-03-11 14:36:15","969024","15.2482812","0.0008136","97.5809","205.5884","253.3049","106.7295","0","999","9448","0.0018118","0.00045177","0","3857847","0 SPACEBEE-100","1 48883U 21059E   23070.60851816  .00045177  00000-0  18118-2 0  9990","2 48883  97.5809 205.5884 0008136 253.3049 106.7295 15.24828120 94485","2021-059E","48883","6869.439","94.437","496.893","485.715","0"
"GENERATED VIA SPACETRACK.ORG API","18 SPCS","48883","SPACEBEE-100","PAYLOAD","U","21059E","2023-03-12 07:55:42","770496","15.2489874","0.0008221","97.5806","206.3186","250.229","109.8061","0","999","9459","0.0019884","0.00049723","0","3858427","0 SPACEBEE-100","1 48883U 21059E   23071.33035614  .00049723  00000-0  19884-2 0  9993","2 48883  97.5806 206.3186 0008221 250.2290 109.8061 15.24898740 94597","2021-059E","48883","6869.227","94.432","496.739","485.444","0"
"GENERATED VIA SPACETRACK.ORG API","18 SPCS","48883","SPACEBEE-100","PAYLOAD","U","21059E","2023-03-12 07:55:42","770496","15.2489874","0.0008221","97.5806","206.3186","250.229","109.8061","0","999","9459","0.0019884","0.00049723","0","3858534","0 SPACEBEE-100","1 48883U 21059E   23071.33035614  .00049723  00000-0  19884-2 0  9993","2 48883  97.5806 206.3186 0008221 250.2290 109.8061 15.24898740 94597","2021-059E","48883","6869.227","94.432","496.739","485.444","0"
"GENERATED VIA SPACETRACK.ORG API","18 SPCS","48883","SPACEBEE-100","PAYLOAD","U","21059E","2023-03-13 07:33:03","914496","15.24984081","0.0008154","97.5803","207.315","246.6735","113.3645","0","999","9474","0.0016155","0.00040436","0","3859270","0 SPACEBEE-100","1 48883U 21059E   23072.31462864  .00040436  00000-0  16155-2 0  9993","2 48883  97.5803 207.3150 0008154 246.6735 113.3645 15.24984081 94743","2021-059E","48883","6868.970","94.427","496.436","485.234","0"
"GENERATED VIA SPACETRACK.ORG API","18 SPCS","48883","SPACEBEE-100","PAYLOAD","U","21059E","2023-03-13 07:33:03","914496","15.24984081","0.0008154","97.5803","207.315","246.6735","113.3645","0","999","9474","0.0016155","0.00040436","0","3859425","0 SPACEBEE-100","1 48883U 21059E   23072.31462864  .00040436  00000-0  16155-2 0  9993","2 48883  97.5803 207.3150 0008154 246.6735 113.3645 15.24984081 94743","2021-059E","48883","6868.970","94.427","496.436","485.234","0"
"GENERATED VIA SPACETRACK.ORG API","18 SPCS","48883","SPACEBEE-100","PAYLOAD","U","21059E","2023-03-13 21:43:26","433120","15.25030452","0.0008131","97.5805","207.913","244.811","115.2285","0","999","9483","0.0014997","0.0003757","0","3859631","0 SPACEBEE-100","1 48883U 21059E   23072.90516705  .00037570  00000-0  14997-2 0  9999","2 48883  97.5805 207.9130 0008131 244.8110 115.2285 15.25030452 94837","2021-059E","48883","6868.831","94.424","496.281","485.111","0"
"GENERATED VIA SPACETRACK.ORG API","18 SPCS","48883","SPACEBEE-100","PAYLOAD","U","21059E","2023-03-14 08:44:49","543584","15.25069118","0.0008107","97.5804","208.3781","243.1906","116.8502","0","999","9490","0.0016499","0.00041409","0","3860227","0 SPACEBEE-100","1 48883U 21059E   23073.36446231  .00041409  00000-0  16499-2 0  9991","2 48883  97.5804 208.3781 0008107 243.1906 116.8502 15.25069118 94909","2021-059E","48883","6868.715","94.422","496.148","485.011","0"
"GENERATED VIA SPACETRACK.ORG API","18 SPCS","48883","SPACEBEE-100","PAYLOAD","U","21059E","2023-03-14 15:02:45","136320","15.25092778","0.0008121","97.5803","208.6437","241.8332","118.2085","0","999","9494","0.0017658","0.00044372","0","3860373","0 SPACEBEE-100","1 48883U 21059E   23073.62691130  .00044372  00000-0  17658-2 0  9990","2 48883  97.5803 208.6437 0008121 241.8332 118.2085 15.25092778 94947","2021-059E","48883","6868.644","94.420","496.087","484.931","0"
"GENERATED VIA SPACETRACK.ORG API","18 SPCS","48883","SPACEBEE-100","PAYLOAD","U","21059E","2023-03-14 19:46:11","561088","15.25113015","0.0008116","97.5803","208.8431","241.1529","118.8895","0","999","9497","0.0018141","0.00045623","0","3860643","0 SPACEBEE-100","1 48883U 21059E   23073.82374492  .00045623  00000-0  18141-2 0  9999","2 48883  97.5803 208.8431 0008116 241.1529 118.8895 15.25113015 94974","2021-059E","48883","6868.583","94.419","496.023","484.874","0"
"GENERATED VIA SPACETRACK.ORG API","18 SPCS","48883","SPACEBEE-100","PAYLOAD","U","21059E","2023-03-15 08:22:01","62624","15.25162696","0.0008153","97.58","209.3751","239.8066","120.2365","0","999","9505","0.0018801","0.00047367","0","3861201","0 SPACEBEE-100","1 48883U 21059E   23074.34862341  .00047367  00000-0  18801-2 0  9992","2 48883  97.5800 209.3751 0008153 239.8066 120.2365 15.25162696 95051","2021-059E","48883","6868.434","94.416","495.899","484.699","0"
"GENERATED VIA SPACETRACK.ORG API","18 SPCS","48883","SPACEBEE-100","PAYLOAD","U","21059E","2023-03-15 08:22:01","62624","15.25162696","0.0008153","97.58","209.3751","239.8066","120.2365","0","999","9505","0.0018801","0.00047367","0","3861350","0 SPACEBEE-100","1 48883U 21059E   23074.34862341  .00047367  00000-0  18801-2 0  9992","2 48883  97.5800 209.3751 0008153 239.8066 120.2365 15.25162696 95051","2021-059E","48883","6868.434","94.416","495.899","484.699","0"
"GENERATED VIA SPACETRACK.ORG API","18 SPCS","48883","SPACEBEE-100","PAYLOAD","U","21059E","2023-03-15 20:57:48","969216","15.2521304","0.0008164","97.5798","209.9066","238.0132","122.0313","0","999","9513","0.0017331","0.00043703","0","3861599","0 SPACEBEE-100","1 48883U 21059E   23074.87348344  .00043703  00000-0  17331-2 0  9999","2 48883  97.5798 209.9066 0008164 238.0132 122.0313 15.25213040 95131","2021-059E","48883","6868.283","94.413","495.755","484.541","0"
"GENERATED VIA SPACETRACK.ORG API","18 SPCS","48883","SPACEBEE-100","PAYLOAD","U","21059E","2023-03-16 14:17:00","9600","15.25276448","0.0008182","97.5798","210.6374","235.6704","124.376","0","999","9524","0.0015968","0.00040318","0","3862295","0 SPACEBEE-100","1 48883U 21059E   23075.59513900  .00040318  00000-0  15968-2 0  9994","2 48883  97.5798 210.6374 0008182 235.6704 124.3760 15.25276448 95244","2021-059E","48883","6868.092","94.409","495.577","484.338","0"
"GENERATED VIA SPACETRACK.ORG API","18 SPCS","48883","SPACEBEE-100","PAYLOAD","U","21059E","2023-03-16 20:34:52","531680","15.25295779","0.0008175","97.5798","210.9033","234.8467","125.2005","0","999","9528","0.0014141","0.00035695","0","3862592","0 SPACEBEE-100","1 48883U 21059E   23075.85755245  .00035695  00000-0  14141-2 0  9997","2 48883  97.5798 210.9033 0008175 234.8467 125.2005 15.25295779 95282","2021-059E","48883","6868.034","94.408","495.514","484.285","0"
"GENERATED VIA SPACETRACK.ORG API","18 SPCS","48883","SPACEBEE-100","PAYLOAD","U","21059E","2023-03-16 22:09:20","623104","15.25300243","0.0008171","97.5798","210.9697","234.6052","125.4422","0","999","9529","0.0013971","0.00035268","0","3862475","0 SPACEBEE-100","1 48883U 21059E   23075.92315536  .00035268  00000-0  13971-2 0  9996","2 48883  97.5798 210.9697 0008171 234.6052 125.4422 15.25300243 95291","2021-059E","48883","6868.021","94.408","495.498","484.274","0"
"GENERATED VIA SPACETRACK.ORG API","18 SPCS","48883","SPACEBEE-100","PAYLOAD","U","21059E","2023-03-17 07:36:08","788896","15.25327783","0.0008153","97.58","211.3685","233.4493","126.5994","0","999","9535","0.0013285","0.00033552","0","3863278","0 SPACEBEE-100","1 48883U 21059E   23076.31676839  .00033552  00000-0  13285-2 0  9998","2 48883  97.5800 211.3685 0008153 233.4493 126.5994 15.25327783 95354","2021-059E","48883","6867.938","94.406","495.403","484.204","0"
"GENERATED VIA SPACETRACK.ORG API","18 SPCS","48883","SPACEBEE-100","PAYLOAD","U","21059E","2023-03-17 21:46:19","855200","15.25372432","0.000812","97.5802","211.9667","231.1417","128.9096","0","999","9544","0.0014087","0.00035639","0","3863544","0 SPACEBEE-100","1 48883U 21059E   23076.90717425  .00035639  00000-0  14087-2 0  9999","2 48883  97.5802 211.9667 0008120 231.1417 128.9096 15.25372432 95447","2021-059E","48883","6867.804","94.403","495.246","484.093","0"
"GENERATED VIA SPACETRACK.ORG API","18 SPCS","48883","SPACEBEE-100","PAYLOAD","U","21059E","2023-03-18 02:29:43","265472","15.25383646","0.0008112","97.5802","212.1661","230.233","129.8194","0","999","9547","0.001366","0.00034563","0","3863716","0 SPACEBEE-100","1 48883U 21059E   23077.10397298  .00034563  00000-0  13660-2 0  9995","2 48883  97.5802 212.1661 0008112 230.2330 129.8194 15.25383646 95470","2021-059E","48883","6867.771","94.402","495.207","484.065","0"
